GLOBALSTAR M057         
1 25943U 99058A   25286.93258509 -.00000077  00000+0  14839-3 0  9990
2 25943  52.0018  11.2028 0002158 247.9325 112.1296 12.24827471181485
GLOBALSTAR M059         
1 25944U 99058B   25286.64767465 -.00000141  00000+0 -67344-3 0  9997
2 25944  52.0010 246.6976 0000351  74.3703  96.6465 11.99987656588263
GLOBALSTAR M056         
1 25945U 99058C   25286.88615234 -.00000102  00000+0 -16493-3 0  9996
2 25945  51.9954 244.9686 0001365  52.3858 323.2171 12.04779233176938
GLOBALSTAR M031         
1 25946U 99058D   25286.95658737 -.00000127  00000+0 -37401-3 0  9999
2 25946  51.9937 129.9915 0002363  72.6420  70.0667 12.16042127178999
GLOBALSTAR M039         
1 25961U 99062A   25286.93491660 -.00000088  00000+0  87677-4 0  9995
2 25961  51.9835 267.0315 0002248 253.4362 106.6258 12.62333336195219
GLOBALSTAR M034         
1 25962U 99062B   25286.95747616 -.00000061  00000+0  31618-3 0  9997
2 25962  51.9879  62.6482 0013297 264.6229 253.5505 11.79449265152401
GLOBALSTAR M029         
1 25963U 99062C   25286.99301172 -.00000076  00000+0  12826-3 0  9991
2 25963  51.9780 133.6970 0002723  14.3428 134.3032 11.99902165183384
GLOBALSTAR M061         
1 25964U 99062D   25286.94762823 -.00000048  00000+0  52400-3 0  9992
2 25964  51.9781 248.2890 0005537 185.7601 208.2106 11.76777646135167
